H1 CPF 01  gfz 2021 04 28 12  6182 tandemx   
H2 1003001  6202 36605    2021 04 28 12 59 42 2021 05 03 00 00 42   120 1 1  0 0 0
H9
10 0 59335  35982.000000  0   -2963555.581   3768956.616  -4954406.716
10 0 59335  36102.000000  0   -3162893.556   4372899.659  -4289695.626
10 0 59335  36222.000000  0   -3297288.887   4903702.136  -3549840.622
10 0 59335  36342.000000  0   -3365713.374   5350892.838  -2747733.201
10 0 59335  36462.000000  0   -3368456.734   5705434.721  -1897388.479
10 0 59335  36582.000000  0   -3307101.935   5959917.091  -1013702.518
10 0 59335  36702.000000  0   -3184472.468   6108718.016   -112188.695
10 0 59335  36822.000000  0   -3004555.800   6148132.898    791298.688
10 0 59335  36942.000000  0   -2772402.603   6076467.620   1680852.861
10 0 59335  37062.000000  0   -2494001.046   5894088.557   2540805.788
10 0 59335  37182.000000  0   -2176132.878   5603429.435   3356012.678
10 0 59335  37302.000000  0   -1826215.825   5208957.278   4112124.654
10 0 59335  37422.000000  0   -1452135.650   4717098.273   4795845.325
10 0 59335  37542.000000  0   -1062071.079   4136125.332   5395166.242
10 0 59335  37662.000000  0    -664316.444   3476010.010   5899575.824
10 0 59335  37782.000000  0    -267107.590   2748242.983   6300239.703
10 0 59335  37902.000000  0     121546.972   1965627.185   6590149.234
10 0 59335  38022.000000  0     494025.796   1142048.707   6764238.525
10 0 59335  38142.000000  0     843242.747    292227.473   6819467.289
10 0 59335  38262.000000  0    1162780.519   -568545.198   6754870.071
10 0 59335  38382.000000  0    1447007.906  -1424681.157   6571573.272
10 0 59335  38502.000000  0    1691179.238  -2260577.219   6272776.861
10 0 59335  38622.000000  0    1891514.121  -3060900.030   5863702.679
10 0 59335  38742.000000  0    2045256.406  -3810869.687   5351508.187
10 0 59335  38862.000000  0    2150711.056  -4496536.045   4745166.167
10 0 59335  38982.000000  0    2207259.063  -5105042.924   4055313.474
10 0 59335  39102.000000  0    2215350.835  -5624877.722   3294068.805
10 0 59335  39222.000000  0    2176474.775  -6046098.264   2474820.352
10 0 59335  39342.000000  0    2093103.523  -6360531.041   1611988.487
10 0 59335  39462.000000  0    1968620.312  -6561936.217    720768.311
10 0 59335  39582.000000  0    1807224.936  -6646137.286   -183143.685
10 0 59335  39702.000000  0    1613822.841  -6611111.374  -1083835.060
10 0 59335  39822.000000  0    1393897.773  -6457032.717  -1965468.952
10 0 59335  39942.000000  0    1153372.975  -6186271.741  -2812569.605
10 0 59335  40062.000000  0     898466.063  -5803349.513  -3610299.959
10 0 59335  40182.000000  0     635541.643  -5314850.569  -4344722.953
10 0 59335  40302.000000  0     370962.824  -4729297.125  -5003043.242
10 0 59335  40422.000000  0     110946.732  -4056988.356  -5573824.120
10 0 59335  40542.000000  0    -138572.875  -3309808.910  -6047177.814
10 0 59335  40662.000000  0    -372073.059  -2501011.055  -6414925.862
10 0 59335  40782.000000  0    -584556.915  -1644975.663  -6670728.827
10 0 59335  40902.000000  0    -771654.702   -756956.789  -6810184.790
10 0 59335  41022.000000  0    -929709.137    147186.959  -6830897.421
10 0 59335  41142.000000  0   -1055843.899   1051269.775  -6732511.368
10 0 59335  41262.000000  0   -1148014.626   1939060.629  -6516717.514
10 0 59335  41382.000000  0   -1205041.444   2794567.045  -6187226.991
10 0 59335  41502.000000  0   -1226622.847   3602317.985  -5749715.966
10 0 59335  41622.000000  0   -1213330.834   4347641.859  -5211737.584
10 0 59335  41742.000000  0   -1166586.853   5016934.476  -4582603.421
10 0 59335  41862.000000  0   -1088619.458   5597913.410  -3873233.163
10 0 59335  41982.000000  0    -982403.525   6079851.794  -3095973.702
10 0 59335  42102.000000  0    -851582.146   6453786.746  -2264391.245
10 0 59335  42222.000000  0    -700372.638   6712698.770  -1393037.982
10 0 59335  42342.000000  0    -533459.073   6851655.133   -497196.894
10 0 59335  42462.000000  0    -355872.806   6867914.824    407389.710
10 0 59335  42582.000000  0    -172864.344   6760990.975   1304804.254
10 0 59335  42702.000000  0      10229.439   6532666.473   2179244.359
10 0 59335  42822.000000  0     188119.319   6186961.891   3015309.885
10 0 59335  42942.000000  0     355695.888   5730059.934   3798280.414
10 0 59335  43062.000000  0     508157.226   5170189.986   4514379.357
10 0 59335  43182.000000  0     641127.937   4517469.833   5151023.826
10 0 59335  43302.000000  0     750766.575   3783708.273   5697042.030
10 0 59335  43422.000000  0     833860.799   2982184.765   6142865.302
10 0 59335  43542.000000  0     887905.979   2127401.099   6480691.412
10 0 59335  43662.000000  0     911166.532   1234813.643   6704615.169
10 0 59335  43782.000000  0     902719.456    320550.342   6810725.592
10 0 59335  43902.000000  0     862479.093   -598880.316   6797169.305
10 0 59335  44022.000000  0     791202.427  -1506886.692   6664182.343
10 0 59335  44142.000000  0     690474.871  -2387093.404   6414086.580
10 0 59335  44262.000000  0     562676.713  -3223637.470   6051252.355
10 0 59335  44382.000000  0     410930.539  -4001456.386   5582024.423
10 0 59335  44502.000000  0     239031.805  -4706560.547   5014615.822
10 0 59335  44622.000000  0      51363.530  -5326289.683   4358971.796
10 0 59335  44742.000000  0    -147204.693  -5849550.155   3626601.551
10 0 59335  44862.000000  0    -351431.751  -6267023.979   2830378.335
10 0 59335  44982.000000  0    -555830.374  -6571345.065   1984312.475
10 0 59335  45102.000000  0    -754799.716  -6757237.210   1103302.103
10 0 59335  45222.000000  0    -942763.062  -6821614.674    202865.282
10 0 59335  45342.000000  0   -1114306.805  -6763636.575   -701143.263
10 0 59335  45462.000000  0   -1264315.577  -6584714.696  -1592820.607
10 0 59335  45582.000000  0   -1388101.001  -6288476.499  -2456503.175
10 0 59335  45702.000000  0   -1481521.466  -5880684.965  -3277048.203
10 0 59335  45822.000000  0   -1541089.671  -5369116.337  -4040103.503
10 0 59335  45942.000000  0   -1564064.906  -4763399.172  -4732358.612
10 0 59335  46062.000000  0   -1548528.192  -4074821.016  -5341772.241
10 0 59335  46182.000000  0   -1493439.212  -3316108.312  -5857774.007
10 0 59335  46302.000000  0   -1398673.807  -2501184.000  -6271438.304
10 0 59335  46422.000000  0   -1265041.584  -1644907.339  -6575627.598
10 0 59335  46542.000000  0   -1094283.951   -762802.530  -6765103.774
10 0 59335  46662.000000  0    -889053.106    129219.549  -6836608.738
10 0 59335  46782.000000  0    -652871.083   1015142.400  -6788913.516
10 0 59335  46902.000000  0    -390070.230   1879123.754  -6622836.776
10 0 59335  47022.000000  0    -105716.813   2705771.258  -6341232.535
10 0 59335  47142.000000  0     194482.894   3480411.731  -5948948.330
10 0 59335  47262.000000  0     504293.332   4189350.050  -5452750.389
10 0 59335  47382.000000  0     817073.664   4820111.564  -4861217.451
10 0 59335  47502.000000  0    1125914.157   5361666.958  -4184604.542
10 0 59335  47622.000000  0    1423782.913   5804633.856  -3434675.089
10 0 59335  47742.000000  0    1703679.449   6141449.819  -2624504.416
10 0 59335  47862.000000  0    1958792.052   6366513.913  -1768256.820
10 0 59335  47982.000000  0    2182655.481   6476292.179   -880938.450
10 0 59335  48102.000000  0    2369304.734   6469382.494     21869.377
10 0 59335  48222.000000  0    2513420.595   6346536.796    924289.953
10 0 59335  48342.000000  0    2610463.315   6110640.236   1810437.833
10 0 59335  48462.000000  0    2656790.982   5766647.730   2664706.656
10 0 59335  48582.000000  0    2649759.873   5321479.508   3472051.915
10 0 59335  48702.000000  0    2587804.200   4783877.847   4218262.868
10 0 59335  48822.000000  0    2470492.394   4164228.682   4890218.864
10 0 59335  48942.000000  0    2298557.059   3474349.488   5476121.338
10 0 59335  49062.000000  0    2073901.869   2727255.862   5965696.457
10 0 59335  49182.000000  0    1799585.099   1936910.435   6350371.253
10 0 59335  49302.000000  0    1479777.997   1117956.388   6623419.109
10 0 59335  49422.000000  0    1119699.980    285442.561   6780070.249
10 0 59335  49542.000000  0     725532.725   -545452.353   6817589.260
10 0 59335  49662.000000  0     304313.819  -1359696.080   6735321.673
10 0 59335  49782.000000  0    -136189.187  -2142675.016   6534704.665
10 0 59335  49902.000000  0    -587622.094  -2880456.778   6219243.144
10 0 59335  50022.000000  0   -1041201.177  -3560039.101   5794450.352
10 0 59335  50142.000000  0   -1487881.046  -4169579.747   5267756.393
10 0 59335  50262.000000  0   -1918533.765  -4698607.181   4648386.842
10 0 59335  50382.000000  0   -2324136.017  -5138208.673   3947208.200
10 0 59335  50502.000000  0   -2695959.139  -5481189.946   3176540.196
10 0 59335  50622.000000  0   -3025756.463  -5722200.131   2349938.654
10 0 59335  50742.000000  0   -3305944.277  -5857820.860   1481955.081
10 0 59335  50862.000000  0   -3529772.576  -5886617.916    587875.843
10 0 59335  50982.000000  0   -3691481.031  -5809153.032   -316554.004
10 0 59335  51102.000000  0   -3786436.192  -5627955.687  -1215416.582
10 0 59335  51222.000000  0   -3811246.049  -5347454.472  -2092910.726
10 0 59335  51342.000000  0   -3763849.057  -4973869.916  -2933637.778
10 0 59335  51462.000000  0   -3643575.217  -4515072.173  -3722877.176
10 0 59335  51582.000000  0   -3451178.000  -3980408.381  -4446845.408
10 0 59335  51702.000000  0   -3188837.685  -3380505.234  -5092933.995
10 0 59335  51822.000000  0   -2860136.496  -2727051.110  -5649923.013
10 0 59335  51942.000000  0   -2470006.803  -2032563.451  -6108166.694
10 0 59335  52062.000000  0   -2024653.492  -1310146.610  -6459750.352
10 0 59335  52182.000000  0   -1531451.697   -573244.155  -6698615.597
10 0 59335  52302.000000  0    -998823.695    164608.564  -6820652.786
10 0 59335  52422.000000  0    -436097.133    890027.053  -6823763.378
99
